[Satellite]
VERSION=1.1
NAME=MOLNIYA 1-71
NICKNAME=MOLNIYA 1-71
TLE1=1 18946U 88017A   19316.26779944  .00000213  00000-0 -11179+0 0  9995
TLE2=2 18946  63.5655 229.4304 6840087 262.9542 346.1341  2.00649300232077
STATUS=0
